QIANFAN-33              
1 61566U 24185Q   26003.90061121  .00000640  00000+0  45315-3 0  9995
2 61566  88.9786  76.3416 0005254 248.1056 111.9562 13.96573887 72259
QIANFAN-34              
1 61567U 24185R   26003.91785096  .00000687  00000+0  43928-3 0  9990
2 61567  88.9763  75.8737 0003636 253.7326 106.3455 14.02329794 72465
QIANFAN-35              
1 61568U 24185S   26003.91071544  .00001263  00000+0  50325-3 0  9997
2 61568  88.9787  74.2810 0005964 193.0239 167.0802 14.28013229 73341
QIANFAN-36              
1 61569U 24185T   26003.88540783  .00000041  00000+0  40851-4 0  9997
2 61569  88.9772  78.7420 0005166 357.0055   3.1067 13.55594935 70925
QIANFAN-37              
1 62238U 24232B   26003.91555126  .00000097  00000+0  13199-3 0  9990
2 62238  88.9999  39.0897 0002377  81.9076 278.2345 13.50981780102164
QIANFAN-38              
1 62239U 24232C   26003.94024721  .00000101  00000+0  13723-3 0  9995
2 62239  89.0006  39.0045 0016227 127.2587 233.0047 13.50979541102228
QIANFAN-39              
1 62240U 24232D   26003.95797160  .00000441  00000+0  18052-3 0  9999
2 62240  88.9998  34.7666 0016431  14.2633 345.9020 14.25408385104551
QIANFAN-40              
1 62241U 24232E   26003.97316498  .00000118  00000+0  16399-3 0  9996
2 62241  89.0034  38.5918 0015101 134.0296 226.2102 13.50979633102596
